satname,norad_id,inclination_deg,eccentricity,mean_motion_rev_per_day,perigee_km,apogee_km,l1,l2
STARLINK-1152,45096,53.0422,0.0006133,15.29358602,473.5237816096933,481.9331862122581,1 45096U 20006BE  25360.82270573  .00040209  00000+0  13974-2 0  9992,2 45096  53.0422 187.8452 0006133  96.1350 264.0348 15.29358602326407
STARLINK-1184,45098,53.053,0.0001869,15.07048725,543.9300463246473,546.5179986748581,1 45098U 20006BG  25360.86099925  .00010585  00000+0  71590-3 0  9991,2 45098  53.0530 213.5151 0001869 114.7830 245.3353 15.07048725326049
STARLINK-1193,45100,53.0537,0.0001578,15.06398872,546.122194549991,548.3078356459555,1 45100U 20006BJ  25360.86157339  .00001378  00000+0  11139-3 0  9992,2 45100  53.0537 213.5571 0001578  80.6331 279.4836 15.06398872326044
STARLINK-1143,45179,53.0529,0.0002054,15.48814851,418.7955246323372,421.5882781450282,1 45179U 20012B   25360.91668980  .00146371  00000+0  26358-2 0  9991,2 45179  53.0529 321.8404 0002054  82.0177 108.2734 15.48814851  5959
STARLINK-1202,45183,53.054,0.0001256,15.0640528,546.3255537996356,548.0651972923724,1 45183U 20012F   25360.45980292  .00006587  00000+0  46064-3 0  9999,2 45183  53.0540  15.3627 0001256  98.8509 261.2622 15.06405280323805
STARLINK-1216,45185,53.0573,0.000144,15.06387911,546.2513537021969,548.2458647576541,1 45185U 20012H   25360.31974188  .00002478  00000+0  18525-3 0  9999,2 45185  53.0573  15.9878 0001440  96.1369 263.9784 15.06387911323726
STARLINK-1225,45187,53.0559,0.0001277,15.06393255,546.347860818224,548.1166001196843,1 45187U 20012K   25360.73624725  .00001661  00000+0  13041-3 0  9997,2 45187  53.0559  14.1190 0001277  97.3274 262.7860 15.06393255323838
STARLINK-1230,45189,53.0555,0.0001298,15.06392935,546.334298176942,548.1321242837776,1 45189U 20012M   25360.73993248  .00001506  00000+0  12002-3 0  9992,2 45189  53.0555  14.1022 0001298  78.6364 281.4770 15.06392935321060
STARLINK-1234,45190,53.0504,0.0011851,15.46248891,419.64531289782917,435.7765336455677,1 45190U 20012N   25360.91668980  .00143420  00000+0  28179-2 0  9999,2 45190  53.0504 316.6519 0011851  55.6785 313.8212 15.46248891  5835
STARLINK-1269,45197,53.0555,0.0001453,15.06394761,546.2213592867338,548.2338702437846,1 45197U 20012V   25360.28656841  .00004705  00000+0  33461-3 0  9992,2 45197  53.0555  16.1379 0001453 104.0475 256.0675 15.06394761323744
STARLINK-1154,45198,53.055,0.0001053,15.14760762,520.9784083673494,522.4315150844886,1 45198U 20012W   25360.91668980  .01513276  00000+0  73407-1 0  9991,2 45198  53.0550 353.1383 0001053  85.2938 232.4797 15.14760762  5836
STARLINK-1199,45201,53.0563,0.0001326,15.06400948,546.2903516228234,548.1269532898541,1 45201U 20012Z   25360.28840049  .00002861  00000+0  21086-3 0  9994,2 45201  53.0563 356.1315 0001326  97.2141 262.8999 15.06400948324052
STARLINK-1209,45206,53.053,0.0012075,15.38878262,441.18090937472425,457.66947206531313,1 45206U 20012AE  25360.91668980  .00120570  00000+0  30433-2 0  9994,2 45206  53.0530 319.8822 0012075  54.3013 107.8573 15.38878262  5814
STARLINK-1210,45207,53.0221,0.0004329,15.72972915,347.4928948966881,353.3184671499175,1 45207U 20012AF  25360.91668980  .00146480  00000+0  10395-2 0  9998,2 45207  53.0221 269.7336 0004329 153.4945 164.3875 15.72972915  5959
STARLINK-1231,45212,53.0526,7.12e-05,15.15909382,517.7281137831988,518.7101548967303,1 45212U 20012AL  25360.34870198  .00039113  00000+0  20224-2 0  9993,2 45212  53.0526 351.1636 0000712 164.0103 196.0912 15.15909382324085
STARLINK-1271,45217,53.0557,0.0001425,15.06398858,546.2281953377442,548.2019206742762,1 45217U 20012AR  25360.27365779  .00002315  00000+0  17429-3 0  9992,2 45217  53.0557 356.1964 0001425  79.8177 280.2972 15.06398858324058
STARLINK-1191,45222,53.0564,0.0001415,15.06398509,546.2361901747418,548.1960651098643,1 45222U 20012AW  25360.34922284  .00002776  00000+0  20516-3 0  9998,2 45222  53.0564 335.8572 0001415  82.2178 277.8971 15.06398509324345
STARLINK-1212,45223,53.0565,0.0001648,15.06642388,545.3275981946672,547.6099482575228,1 45223U 20012AX  25359.43869973  .00047852  00000+0  31887-2 0  9998,2 45223  53.0565 340.5965 0001648 105.5886 254.5285 15.06642388324201
STARLINK-1215,45225,53.0553,0.0001293,15.06394367,546.3333725249477,548.1242721266017,1 45225U 20012AZ  25360.12438207  .00002000  00000+0  15312-3 0  9992,2 45225  53.0553 336.8652 0001293  99.9513 260.1622 15.06394367324265
STARLINK-1221,45227,53.0658,0.0005594,15.38967267,445.34275257995705,452.9811346380675,1 45227U 20012BB  25360.14378464  .00015784  00000+0  41228-3 0  9992,2 45227  53.0658 257.3400 0005594 122.4675 237.6870 15.38967267325377
STARLINK-1222,45228,53.058,0.0001974,15.42232574,438.175957000014,440.8675686795832,1 45228U 20012BC  25360.91668980  .00071840  00000+0  16407-2 0  9998,2 45228  53.0580 329.9517 0001974  89.8747 353.9564 15.42232574  5841
STARLINK-1226,45229,53.0553,0.0001433,15.06392618,546.2417771069731,548.2265884879625,1 45229U 20012BD  25360.65147625  .00002926  00000+0  21528-3 0  9998,2 45229  53.0553 334.4994 0001433  89.6000 270.5153 15.06392618324288
STARLINK-1227,45230,53.0554,0.0001464,15.0639811,546.2034786452077,548.2312223990411,1 45230U 20012BE  25360.64778912  .00003133  00000+0  22916-3 0  9991,2 45230  53.0554 334.5155 0001464  87.5963 272.5194 15.06398110324404
STARLINK-1246,45235,53.0559,0.0001391,15.0640586,546.2302844543201,548.1569114266667,1 45235U 20012BK  25360.46348796  .00001515  00000+0  12055-3 0  9994,2 45235  53.0559  15.3429 0001391  99.2297 260.8850 15.06405860323826
STARLINK-1270,45237,53.0534,0.0001176,15.31920552,469.27726944272854,470.8879706973703,1 45237U 20012BM  25360.91668980  .01795361  00000+0  51600-1 0  9993,2 45237  53.0534 332.1515 0001176 104.7704  49.1158 15.31920552  5838
STARLINK-1279,45360,53.0483,0.0003289,15.43074433,434.80034015854926,439.28336480771304,1 45360U 20019A   25360.76628778  .00021231  00000+0  48101-3 0  9992,2 45360  53.0483  88.5831 0003289 248.2462 111.8193 15.43074433319366
STARLINK-1301,45361,53.047,0.0004077,15.4708312,422.4903587069866,428.037851968279,1 45361U 20019B   25360.91668980  .00069169  00000+0  13403-2 0  9997,2 45361  53.0470  96.4569 0004077 259.5857 273.6828 15.47083120  5785
STARLINK-1306,45362,53.036,0.000424,15.97119458,279.59119468562403,285.2393430096063,1 45362U 20019C   25360.91668980  .00338932  57700-4  76491-3 0  9996,2 45362  53.0360  70.0892 0004240  20.6904 130.1643 15.97119458  6011
STARLINK-1262,45366,53.0564,0.0001315,15.0639,546.3315193018843,548.1528940332373,1 45366U 20019G   25360.64410117  .00001214  00000+0  10040-3 0  9991,2 45366  53.0564 134.5299 0001315  86.0146 274.0993 15.06390000318726
STARLINK-1273,45367,53.0574,0.0001684,15.06398678,546.0493803013678,548.3818390603074,1 45367U 20019H   25360.79890258 -.00001784  00000+0 -10090-3 0  9995,2 45367  53.0574 133.8332 0001684 114.2134 245.9031 15.06398678318749
STARLINK-1276,45368,53.055,0.000105,15.06402033,546.4781661487459,547.9324880374361,1 45368U 20019J   25360.63672016  .00002386  00000+0  17900-3 0  9993,2 45368  53.0550 134.5663 0001050  96.0467 264.0641 15.06402033318720
STARLINK-1277,45369,53.0558,0.0001295,15.06395012,546.3300108640678,548.1236801000468,1 45369U 20019K   25360.69578516  .00000082  00000+0  24392-4 0  9995,2 45369  53.0558 134.9269 0001295  93.1629 266.9508 15.06395012318725
STARLINK-1281,45370,53.0556,0.0001217,15.06399502,546.3702691317212,548.0558993422237,1 45370U 20019L   25360.75836041  .00001870  00000+0  14442-3 0  9994,2 45370  53.0556 134.0221 0001217  90.9870 269.1258 15.06399502318748
STARLINK-1300,45374,53.056,0.000141,15.06360681,546.355576492987,548.308558770058,1 45374U 20019Q   25360.58147031 -.00003770  00000+0 -23460-3 0  9996,2 45374  53.0560 134.8118 0001410  81.9894 278.1254 15.06360681318710
STARLINK-1302,45375,53.0551,0.0001236,15.06393358,546.3759391885842,548.0878903843195,1 45375U 20019R   25360.59618544  .00000026  00000+0  20630-4 0  9996,2 45375  53.0551 134.7465 0001236  89.7058 270.4073 15.06393358318710
STARLINK-1304,45376,53.0541,0.0001568,15.09691852,536.0565270265233,538.2251581579603,1 45376U 20019S   25360.91668980  .01646986  00000+0  92596-1 0  9991,2 45376  53.0541 133.2900 0001568 108.2380 100.9344 15.09691852  5782
STARLINK-1305,45377,53.0512,0.0004777,15.39870826,443.23082819181764,449.7510777380812,1 45377U 20019T   25360.73781801  .00160643  00000+0  39085-2 0  9995,2 45377  53.0512 120.3759 0004777 195.9014 164.1840 15.39870826318932
STARLINK-1319,45379,53.0509,0.0004529,15.44370657,430.14303276682494,436.3127670931817,1 45379U 20019V   25360.51903333  .00022574  00000+0  48893-3 0  9997,2 45379  53.0509 121.9128 0004529 212.6161 147.4566 15.44370657318899
STARLINK-1266,45383,53.0539,0.0001578,15.06392002,546.1432468942439,548.3288946353769,1 45383U 20019Z   25360.70123772  .00000132  00000+0  27749-4 0  9998,2 45383  53.0539 114.2774 0001578  85.5479 274.5690 15.06392002319009
STARLINK-1267,45384,53.0524,9.47e-05,15.3373417,464.0349281385479,465.33095823578697,1 45384U 20019AA  25360.91668980  .01759084  00000+0  47878-1 0  9997,2 45384  53.0524 112.5843 0000947  91.9352  69.9197 15.33734170  5783
STARLINK-1272,45386,53.0492,0.0004564,15.43252958,433.40604360242196,439.62645909025105,1 45386U 20019AC  25360.82527745  .00101857  00000+0  22350-2 0  9999,2 45386  53.0492  98.9273 0004564 247.5900 112.4622 15.43252958319235
STARLINK-1274,45387,53.0319,0.0002703,15.36653554,454.16611903542525,457.86066073619713,1 45387U 20019AD  25360.54468862  .00071325  00000+0  19559-2 0  9996,2 45387  53.0319  89.8368 0002703   7.4248 352.6794 15.36653554319337
STARLINK-1280,45388,53.0483,0.0004588,15.4891874,416.76897937698413,423.0068470373435,1 45388U 20019AE  25360.91668980  .00082422  00000+0  14942-2 0  9992,2 45388  53.0483 115.6105 0004588 198.9757  15.2224 15.48918740  5797
